ADRAS-J                 
1 58992U 24034A   24242.82852006  .00008445  00000+0  76360-3 0  9996
2 58992  98.2192 219.2624 0044016 163.6525 196.6126 14.94966687 28860
